IRIDIUM 7               
1 24793U 97020B   25055.49217898  .00001033  00000+0  35056-3 0  9996
2 24793  86.3950 224.0828 0002280  95.9267 264.2190 14.35779653455945
IRIDIUM 5               
1 24795U 97020D   25055.15804120  .00011241  00000+0  96021-3 0  9992
2 24795  86.3930 135.8046 0112467 182.6563 177.4084 14.92693824468622
IRIDIUM 4               
1 24796U 97020E   25055.47697807  .00001005  00000+0  33472-3 0  9998
2 24796  86.3953 221.0408 0002041  95.9170 264.2260 14.36689512456315
IRIDIUM 914             
1 24836U 97030A   25055.51596759  .00001240  00000+0  38240-3 0  9992
2 24836  86.3913 229.9668 0001304 145.0865 215.0420 14.40677460453009
IRIDIUM 16              
1 24841U 97030F   25054.95943784  .00000873  00000+0  27938-3 0  9992
2 24841  86.3980 252.8368 0004262  83.5803 276.5880 14.38529939450727
IRIDIUM 911             
1 24842U 97030G   25055.50901473  .00001375  00000+0  36914-3 0  9996
2 24842  86.4407 251.4917 0016127 110.6365 249.6570 14.47389045458767
IRIDIUM 17              
1 24870U 97034B   25055.15511346  .00000792  00000+0  25752-3 0  9998
2 24870  86.3918 282.3143 0003193  59.7413 300.4100 14.37647434447349
IRIDIUM 920             
1 24871U 97034C   25055.48830858  .00000909  00000+0  27447-3 0  9990
2 24871  86.3918 261.6384 0013605  93.2261 267.0495 14.41349761450605
